GLOBALSTAR M094 [+]     
1 39074U 13005C   24019.16372505 -.00000082  00000+0  12359-3 0  9990
2 39074  51.9978 310.2123 0000377  61.2490 298.8415 12.62271129507333
GLOBALSTAR M096 [+]     
1 39075U 13005D   24019.33552845 -.00000083  00000+0  11373-3 0  9993
2 39075  52.0098 357.8024 0000204 139.4128 220.6754 12.62267673506271
GLOBALSTAR M078 [+]     
1 39076U 13005E   24019.46752729 -.00000097  00000+0  36829-4 0  9990
2 39076  51.9877  82.6097 0001581 120.3044 239.7979 12.62257423504914
GLOBALSTAR M095 [+]     
1 39077U 13005F   24019.33517854 -.00000089  00000+0  84677-4 0  9990
2 39077  51.9810  80.4634 0001117 144.2496 215.8445 12.62263093504751
GLOBALSTAR M087 [+]     
1 52888U 22064A   24019.36363213 -.00000083  00000+0  86570-4 0  9999
2 52888  51.9778  10.8048 0009453 346.8208  13.2445 13.37562801 77473
